{"type": "FeatureCollection", "features": [ {"type": "Feature", "properties": {"norad_id": 30630, "name": "FENGYUN 1C DEB", "group": "fengyun-1c-debris", "lat": 28.672625235306896, "lon": -12.328779447756396, "alt_km": 813.806247941272, "timestamp": "2025-12-15T10:55:21.420712+00:00", "meta": {"OBJECT_NAME": "FENGYUN 1C DEB", "OBJECT_ID": "1999-025ANM", "EPOCH": "2025-12-14T10:50:22.247232", "MEAN_MOTION": 14.22385898, "ECCENTRICITY": 0.00259163, "INCLINATION": 99.1728, "RA_OF_ASC_NODE": 161.5582, "ARG_OF_PERICENTER": 69.9485, "MEAN_ANOMALY": 345.1117, "EPHEMERIS_TYPE": 0, "CLASSIFICATION_TYPE": "U", "NORAD_CAT_ID": 30630, "ELEMENT_SET_NO": 999, "REV_AT_EPOCH": 97237, "BSTAR": 0.0010284797, "MEAN_MOTION_DOT": 2.25e-05, "MEAN_MOTION_DDOT": 0}, "tle": {"line1": "1 30630U 99025ANM 25348.45164638  .00002250  00000+0  10285-2 0  9992", "line2": "2 30630  99.1728 161.5582 0025916  69.9485 345.1117 14.22385898972372"}}, "geometry": {"type": "Point", "coordinates": [-12.328779447756396, 28.672625235306896]}}, {"type": "Feature", "properties": {"norad_id": 30632, "name": "FENGYUN 1C DEB", "group": "fengyun-1c-debris", "lat": 15.548841240369503, "lon": 118.51431383869922, "alt_km": 693.3078991812199, "timestamp": "2025-12-15T10:55:21.420722+00:00", "meta": {"OBJECT_NAME": "FENGYUN 1C DEB", "OBJECT_ID": "1999-025ANP", "EPOCH": "2025-12-14T22:16:26.211360", "MEAN_MOTION": 14.62841333, "ECCENTRICITY": 0.00147565, "INCLINATION": 98.8237, "RA_OF_ASC_NODE": 120.4284, "ARG_OF_PERICENTER": 163.0216, "MEAN_ANOMALY": 319.0879, "EPHEMERIS_TYPE": 0, "CLASSIFICATION_TYPE": "U", "NORAD_CAT_ID": 30632, "ELEMENT_SET_NO": 999, "REV_AT_EPOCH": 97723, "BSTAR": 0.0020852564, "MEAN_MOTION_DOT": 0.00010628, "MEAN_MOTION_DDOT": 0}, "tle": {"line1": "1 30632U 99025ANP 25348.92808115  .00010628  00000+0  20853-2 0  9991", "line2": "2 30632  98.8237 120.4284 0014756 163.0216 319.0879 14.62841333977236"}}, "geometry": {"type": "Point", "coordinates": [118.51431383869922, 15.548841240369503]}}, {"type": "Feature", "properties": {"norad_id": 30633, "name": "FENGYUN 1C DEB", "group": "fengyun-1c-debris", "lat": 53.579775005127765, "lon": -157.31885483203104, "alt_km": 963.2424966632452, "timestamp": "2025-12-15T10:55:21.420734+00:00", "meta": {"OBJECT_NAME": "FENGYUN 1C DEB", "OBJECT_ID": "1999-025ANQ", "EPOCH": "2025-12-14T21:17:44.081664", "MEAN_MOTION": 14.04394269, "ECCENTRICITY": 0.01301289, "INCLINATION": 98.4206, "RA_OF_ASC_NODE": 213.7362, "ARG_OF_PERICENTER": 254.1004, "MEAN_ANOMALY": 170.8786, "EPHEMERIS_TYPE": 0, "CLASSIFICATION_TYPE": "U", "NORAD_CAT_ID": 30633, "ELEMENT_SET_NO": 999, "REV_AT_EPOCH": 95922, "BSTAR": 0.00063732171, "MEAN_MOTION_DOT": 1.054e-05, "MEAN_MOTION_DDOT": 0}, "tle": {"line1": "1 30633U 99025ANQ 25348.88731576  .00001054  00000+0  63732-3 0  9990", "line2": "2 30633  98.4206 213.7362 0130128 254.1004 170.8786 14.04394269959227"}}, "geometry": {"type": "Point", "coordinates": [-157.31885483203104, 53.579775005127765]}}, {"type": "Feature", "properties": {"norad_id": 30634, "name": "FENGYUN 1C DEB", "group": "fengyun-1c-debris", "lat": 65.80423824919427, "lon": 173.731463676787, "alt_km": 773.2431292831507, "timestamp": "2025-12-15T10:55:21.420744+00:00", "meta": {"OBJECT_NAME": "FENGYUN 1C DEB", "OBJECT_ID": "1999-025ANR", "EPOCH": "2025-12-14T22:46:00.452640", "MEAN_MOTION": 14.09728089, "ECCENTRICITY": 0.01210158, "INCLINATION": 99.2925, "RA_OF_ASC_NODE": 331.8395, "ARG_OF_PERICENTER": 90.4193, "MEAN_ANOMALY": 332.3775, "EPHEMERIS_TYPE": 0, "CLASSIFICATION_TYPE": "U", "NORAD_CAT_ID": 30634, "ELEMENT_SET_NO": 999, "REV_AT_EPOCH": 95648, "BSTAR": 0.0015523259, "MEAN_MOTION_DOT": 2.871e-05, "MEAN_MOTION_DDOT": 0}, "tle": {"line1": "1 30634U 99025ANR 25348.94861635  .00002871  00000+0  15523-2 0  9990", "line2": "2 30634  99.2925 331.8395 0121015  90.4193 332.3775 14.09728089956482"}}, "geometry": {"type": "Point", "coordinates": [173.731463676787, 65.80423824919427]}}, {"type": "Feature", "properties": {"norad_id": 30639, "name": "FENGYUN 1C DEB", "group": "fengyun-1c-debris", "lat": 0.1805254439130933, "lon": 101.51966500911828, "alt_km": 783.7759634783843, "timestamp": "2025-12-15T10:55:21.420755+00:00", "meta": {"OBJECT_NAME": "FENGYUN 1C DEB", "OBJECT_ID": "1999-025ANW", "EPOCH": "2025-12-14T06:25:17.543424", "MEAN_MOTION": 14.32365203, "ECCENTRICITY": 0.00675174, "INCLINATION": 99.0171, "RA_OF_ASC_NODE": 100.314, "ARG_OF_PERICENTER": 276.796, "MEAN_ANOMALY": 82.5543, "EPHEMERIS_TYPE": 0, "CLASSIFICATION_TYPE": "U", "NORAD_CAT_ID": 30639, "ELEMENT_SET_NO": 999, "REV_AT_EPOCH": 96741, "BSTAR": 0.0031686949, "MEAN_MOTION_DOT": 8.745e-05, "MEAN_MOTION_DDOT": 0}, "tle": {"line1": "1 30639U 99025ANW 25348.26756416  .00008745  00000+0  31687-2 0  9995", "line2": "2 30639  99.0171 100.3140 0067517 276.7960  82.5543 14.32365203967415"}}, "geometry": {"type": "Point", "coordinates": [101.51966500911828, 0.1805254439130933]}}, {"type": "Feature", "properties": {"norad_id": 30640, "name": "FENGYUN 1C DEB", "group": "fengyun-1c-debris", "lat": -37.93404110890296, "lon": 67.84163959120512, "alt_km": 888.1354314806449, "timestamp": "2025-12-15T10:55:21.420764+00:00", "meta": {"OBJECT_NAME": "FENGYUN 1C DEB", "OBJECT_ID": "1999-025ANX", "EPOCH": "2025-12-12T03:27:57.055104", "MEAN_MOTION": 14.14626342, "ECCENTRICITY": 0.00809036, "INCLINATION": 99.057, "RA_OF_ASC_NODE": 57.3425, "ARG_OF_PERICENTER": 102.2672, "MEAN_ANOMALY": 288.9595, "EPHEMERIS_TYPE": 0, "CLASSIFICATION_TYPE": "U", "NORAD_CAT_ID": 30640, "ELEMENT_SET_NO": 999, "REV_AT_EPOCH": 96437, "BSTAR": 0.00227777, "MEAN_MOTION_DOT": 4.475e-05, "MEAN_MOTION_DDOT": 0}, "tle": {"line1": "1 30640U 99025ANX 25346.14441036  .00004475  00000+0  22778-2 0  9998", "line2": "2 30640  99.0570  57.3425 0080903 102.2672 288.9595 14.14626342964379"}}, "geometry": {"type": "Point", "coordinates": [67.84163959120512, -37.93404110890296]}}, {"type": "Feature", "properties": {"norad_id": 30641, "name": "FENGYUN 1C DEB", "group": "fengyun-1c-debris", "lat": 0.0053302255092761, "lon": 104.13306913194471, "alt_km": 589.3242511771123, "timestamp": "2025-12-15T10:55:21.420777+00:00", "meta": {"OBJECT_NAME": "FENGYUN 1C DEB", "OBJECT_ID": "1999-025ANY", "EPOCH": "2025-12-14T07:11:49.119648", "MEAN_MOTION": 14.78980816, "ECCENTRICITY": 0.01362754, "INCLINATION": 98.9409, "RA_OF_ASC_NODE": 282.8489, "ARG_OF_PERICENTER": 121.7175, "MEAN_ANOMALY": 29.5463, "EPHEMERIS_TYPE": 0, "CLASSIFICATION_TYPE": "U", "NORAD_CAT_ID": 30641, "ELEMENT_SET_NO": 999, "REV_AT_EPOCH": 555, "BSTAR": 0.00053266367, "MEAN_MOTION_DOT": 4.531e-05, "MEAN_MOTION_DDOT": 0}, "tle": {"line1": "1 30641U 99025ANY 25348.29987407  .00004531  00000+0  53266-3 0  9994", "line2": "2 30641  98.9409 282.8489 0136275 121.7175  29.5463 14.78980816  5550"}}, "geometry": {"type": "Point", "coordinates": [104.13306913194471, 0.0053302255092761]}}, {"type": "Feature", "properties": {"norad_id": 30646, "name": "FENGYUN 1C DEB", "group": "fengyun-1c-debris", "lat": -40.13084687159901, "lon": 17.26371085414922, "alt_km": 852.1412698333279, "timestamp": "2025-12-15T10:55:21.420787+00:00", "meta": {"OBJECT_NAME": "FENGYUN 1C DEB", "OBJECT_ID": "1999-025APD", "EPOCH": "2025-12-14T12:58:07.195584", "MEAN_MOTION": 14.09656323, "ECCENTRICITY": 0.0048171, "INCLINATION": 98.6519, "RA_OF_ASC_NODE": 9.0101, "ARG_OF_PERICENTER": 27.0252, "MEAN_ANOMALY": 333.3412, "EPHEMERIS_TYPE": 0, "CLASSIFICATION_TYPE": "U", "NORAD_CAT_ID": 30646, "ELEMENT_SET_NO": 999, "REV_AT_EPOCH": 96630, "BSTAR": 0.00076145609, "MEAN_MOTION_DOT": 1.307e-05, "MEAN_MOTION_DDOT": 0}, "tle": {"line1": "1 30646U 99025APD 25348.54036106  .00001307  00000+0  76146-3 0  9998", "line2": "2 30646  98.6519   9.0101 0048171  27.0252 333.3412 14.09656323966301"}}, "geometry": {"type": "Point", "coordinates": [17.26371085414922, -40.13084687159901]}}, {"type": "Feature", "properties": {"norad_id": 30647, "name": "FENGYUN 1C DEB", "group": "fengyun-1c-debris", "lat": 23.01315622389262, "lon": 105.56411406014556, "alt_km": 683.4138693227769, "timestamp": "2025-12-15T10:55:21.420797+00:00", "meta": {"OBJECT_NAME": "FENGYUN 1C DEB", "OBJECT_ID": "1999-025APE", "EPOCH": "2025-12-14T17:59:25.382976", "MEAN_MOTION": 14.56524713, "ECCENTRICITY": 0.00293183, "INCLINATION": 98.9889, "RA_OF_ASC_NODE": 280.949, "ARG_OF_PERICENTER": 167.5007, "MEAN_ANOMALY": 251.9206, "EPHEMERIS_TYPE": 0, "CLASSIFICATION_TYPE": "U", "NORAD_CAT_ID": 30647, "ELEMENT_SET_NO": 999, "REV_AT_EPOCH": 98018, "BSTAR": 0.0017344957, "MEAN_MOTION_DOT": 7.717e-05, "MEAN_MOTION_DDOT": 0}, "tle": {"line1": "1 30647U 99025APE 25348.74959934  .00007717  00000+0  17345-2 0  9990", "line2": "2 30647  98.9889 280.9490 0029318 167.5007 251.9206 14.56524713980183"}}, "geometry": {"type": "Point", "coordinates": [105.56411406014556, 23.01315622389262]}}, {"type": "Feature", "properties": {"norad_id": 30648, "name": "FENGYUN 1C DEB", "group": "fengyun-1c-debris", "lat": -42.406978307997115, "lon": -103.81302037272184, "alt_km": 743.7529060490469, "timestamp": "2025-12-15T10:55:21.420806+00:00", "meta": {"OBJECT_NAME": "FENGYUN 1C DEB", "OBJECT_ID": "1999-025APF", "EPOCH": "2025-12-14T17:54:43.256736", "MEAN_MOTION": 14.48160971, "ECCENTRICITY": 0.00342532, "INCLINATION": 98.6409, "RA_OF_ASC_NODE": 83.4461, "ARG_OF_PERICENTER": 121.7554, "MEAN_ANOMALY": 7.7973, "EPHEMERIS_TYPE": 0, "CLASSIFICATION_TYPE": "U", "NORAD_CAT_ID": 30648, "ELEMENT_SET_NO": 999, "REV_AT_EPOCH": 97895, "BSTAR": 0.0017213478, "MEAN_MOTION_DOT": 6.419e-05, "MEAN_MOTION_DDOT": 0}, "tle": {"line1": "1 30648U 99025APF 25348.74633399  .00006419  00000+0  17213-2 0  9997", "line2": "2 30648  98.6409  83.4461 0034253 121.7554   7.7973 14.48160971978959"}}, "geometry": {"type": "Point", "coordinates": [-103.81302037272184, -42.406978307997115]}}]}